[Satellite]
VERSION=1.1
NAME=SL-8 R/B
NICKNAME=SL-8 R/B
TLE1=1 12139U 81003B   19317.07240630  .00001968  00000-0  93255-4 0  9993
TLE2=2 12139  82.9444 144.6205 0463673 207.9208 149.6410 14.56598132974805
STATUS=0
